STARLINK-36178          
1 67025U 25293Y   25355.58335648 -.01829233  90785-3 -60317-2 0  9994
2 67025  69.9923 298.0547 0004379 261.4759  73.4279 15.90346944  1640
STARLINK-36176          
1 67026U 25293Z   25355.58335648 -.02137556  12172-2 -70161-2 0  9997
2 67026  69.9920 298.0483 0004583 259.4400  80.7922 15.90473097  1651
STARLINK-36171          
1 67027U 25293AA  25355.58335648 -.01976014  10491-2 -65044-2 0  9993
2 67027  69.9920 298.0512 0004472 260.2508  77.7083 15.90399092  1646
STARLINK-36132          
1 67028U 25293AB  25355.58335648 -.01819787  89852-3 -60214-2 0  9999
2 67028  69.9924 298.0419 0004436 268.9199  76.7383 15.90276571  1657
STARLINK-36190          
1 67029U 25293AC  25355.58335648 -.01784569  86651-3 -59014-2 0  9999
2 67029  69.9925 298.0458 0004454 267.6795  74.9905 15.90283296  1652
STARLINK-36138          
1 67030U 25294A   25355.58335648 -.00883237  00000+0 -38838-2 0  9994
2 67030  42.9993 128.0731 0002459 283.3221   6.8083 15.85698362  1534
STARLINK-36150          
1 67031U 25294B   25355.58335648 -.00880537  00000+0 -38658-2 0  9995
2 67031  42.9994 128.0687 0001767 289.8395   1.9817 15.85731643  1722
STARLINK-36131          
1 67032U 25294C   25355.58335648 -.01003377  00000+0 -44508-2 0  9997
2 67032  42.9995 128.0578 0002448 280.7670  15.2992 15.85807485  1535
STARLINK-36137          
1 67033U 25294D   25355.58335648 -.00969922  00000+0 -42927-2 0  9997
2 67033  42.9994 128.0635 0001816 277.9280  16.0084 15.85780214  1533
STARLINK-36140          
1 67034U 25294E   25355.58335648 -.01059008  00000+0 -47204-2 0  9997
2 67034  42.9994 128.0523 0002658 280.9016  17.4647 15.85841455  1531
STARLINK-36085          
1 67035U 25294F   25355.58335648 -.01102112  00000+0 -49438-2 0  9994
2 67035  42.9996 128.0402 0001759 275.8969  27.1999 15.85830746  1530
STARLINK-36125          
1 67036U 25294G   25355.58335648 -.01073591  00000+0 -47928-2 0  9995
2 67036  42.9994 128.0464 0001877 276.7233  23.9643 15.85856063  1723
