CCSDS_OMM_VERS = 2.0
CREATION_DATE  = 
ORIGINATOR     = 

OBJECT_NAME    = STARLINK-36178
OBJECT_ID      = 2025-293Y
CENTER_NAME    = EARTH
REF_FRAME      = TEME
TIME_SYSTEM    = UTC
MEAN_ELEMENT_THEORY = SGP/SGP4

EPOCH          = 2025-12-21T14:00:01.999872
MEAN_MOTION    = 15.90346944
ECCENTRICITY   = .00043793
INCLINATION    = 69.9923
RA_OF_ASC_NODE = 298.0547
ARG_OF_PERICENTER = 261.4759
MEAN_ANOMALY   = 73.4279

EPHEMERIS_TYPE = 0
CLASSIFICATION_TYPE = U
NORAD_CAT_ID   = 67025
ELEMENT_SET_NO = 999
REV_AT_EPOCH   = 164
BSTAR          = -.60317026E-2
MEAN_MOTION_DOT = -.1829233E-1
MEAN_MOTION_DDOT = .90784866E-3

CCSDS_OMM_VERS = 2.0
CREATION_DATE  = 
ORIGINATOR     = 

OBJECT_NAME    = STARLINK-36176
OBJECT_ID      = 2025-293Z
CENTER_NAME    = EARTH
REF_FRAME      = TEME
TIME_SYSTEM    = UTC
MEAN_ELEMENT_THEORY = SGP/SGP4

EPOCH          = 2025-12-21T14:00:01.999872
MEAN_MOTION    = 15.90473097
ECCENTRICITY   = .00045839
INCLINATION    = 69.9920
RA_OF_ASC_NODE = 298.0483
ARG_OF_PERICENTER = 259.4400
MEAN_ANOMALY   = 80.7922

EPHEMERIS_TYPE = 0
CLASSIFICATION_TYPE = U
NORAD_CAT_ID   = 67026
ELEMENT_SET_NO = 999
REV_AT_EPOCH   = 165
BSTAR          = -.70161226E-2
MEAN_MOTION_DOT = -.2137556E-1
MEAN_MOTION_DDOT = .12172132E-2

CCSDS_OMM_VERS = 2.0
CREATION_DATE  = 
ORIGINATOR     = 

OBJECT_NAME    = STARLINK-36171
OBJECT_ID      = 2025-293AA
CENTER_NAME    = EARTH
REF_FRAME      = TEME
TIME_SYSTEM    = UTC
MEAN_ELEMENT_THEORY = SGP/SGP4

EPOCH          = 2025-12-21T14:00:01.999872
MEAN_MOTION    = 15.90399092
ECCENTRICITY   = .00044727
INCLINATION    = 69.9920
RA_OF_ASC_NODE = 298.0512
ARG_OF_PERICENTER = 260.2508
MEAN_ANOMALY   = 77.7083

EPHEMERIS_TYPE = 0
CLASSIFICATION_TYPE = U
NORAD_CAT_ID   = 67027
ELEMENT_SET_NO = 999
REV_AT_EPOCH   = 164
BSTAR          = -.65044424E-2
MEAN_MOTION_DOT = -.1976014E-1
MEAN_MOTION_DDOT = .10491306E-2

CCSDS_OMM_VERS = 2.0
CREATION_DATE  = 
ORIGINATOR     = 

OBJECT_NAME    = STARLINK-36132
OBJECT_ID      = 2025-293AB
CENTER_NAME    = EARTH
REF_FRAME      = TEME
TIME_SYSTEM    = UTC
MEAN_ELEMENT_THEORY = SGP/SGP4

EPOCH          = 2025-12-21T14:00:01.999872
MEAN_MOTION    = 15.90276571
ECCENTRICITY   = .00044369
INCLINATION    = 69.9924
RA_OF_ASC_NODE = 298.0419
ARG_OF_PERICENTER = 268.9199
MEAN_ANOMALY   = 76.7383

EPHEMERIS_TYPE = 0
CLASSIFICATION_TYPE = U
NORAD_CAT_ID   = 67028
ELEMENT_SET_NO = 999
REV_AT_EPOCH   = 165
BSTAR          = -.60214216E-2
MEAN_MOTION_DOT = -.1819787E-1
MEAN_MOTION_DDOT = .89851859E-3

CCSDS_OMM_VERS = 2.0
CREATION_DATE  = 
ORIGINATOR     = 

OBJECT_NAME    = STARLINK-36190
OBJECT_ID      = 2025-293AC
CENTER_NAME    = EARTH
REF_FRAME      = TEME
TIME_SYSTEM    = UTC
MEAN_ELEMENT_THEORY = SGP/SGP4

EPOCH          = 2025-12-21T14:00:01.999872
MEAN_MOTION    = 15.90283296
ECCENTRICITY   = .00044543
INCLINATION    = 69.9925
RA_OF_ASC_NODE = 298.0458
ARG_OF_PERICENTER = 267.6795
MEAN_ANOMALY   = 74.9905

EPHEMERIS_TYPE = 0
CLASSIFICATION_TYPE = U
NORAD_CAT_ID   = 67029
ELEMENT_SET_NO = 999
REV_AT_EPOCH   = 165
BSTAR          = -.5901429E-2
MEAN_MOTION_DOT = -.1784569E-1
MEAN_MOTION_DDOT = .86650573E-3

CCSDS_OMM_VERS = 2.0
CREATION_DATE  = 
ORIGINATOR     = 

OBJECT_NAME    = STARLINK-36138
OBJECT_ID      = 2025-294A
CENTER_NAME    = EARTH
REF_FRAME      = TEME
TIME_SYSTEM    = UTC
MEAN_ELEMENT_THEORY = SGP/SGP4

EPOCH          = 2025-12-21T14:00:01.999872
MEAN_MOTION    = 15.85698362
ECCENTRICITY   = .00024597
INCLINATION    = 42.9993
RA_OF_ASC_NODE = 128.0731
ARG_OF_PERICENTER = 283.3221
MEAN_ANOMALY   = 6.8083

EPHEMERIS_TYPE = 0
CLASSIFICATION_TYPE = U
NORAD_CAT_ID   = 67030
ELEMENT_SET_NO = 999
REV_AT_EPOCH   = 153
BSTAR          = -.38838056E-2
MEAN_MOTION_DOT = -.883237E-2
MEAN_MOTION_DDOT = 0

CCSDS_OMM_VERS = 2.0
CREATION_DATE  = 
ORIGINATOR     = 

OBJECT_NAME    = STARLINK-36150
OBJECT_ID      = 2025-294B
CENTER_NAME    = EARTH
REF_FRAME      = TEME
TIME_SYSTEM    = UTC
MEAN_ELEMENT_THEORY = SGP/SGP4

EPOCH          = 2025-12-21T14:00:01.999872
MEAN_MOTION    = 15.85731643
ECCENTRICITY   = .00017675
INCLINATION    = 42.9994
RA_OF_ASC_NODE = 128.0687
ARG_OF_PERICENTER = 289.8395
MEAN_ANOMALY   = 1.9817

EPHEMERIS_TYPE = 0
CLASSIFICATION_TYPE = U
NORAD_CAT_ID   = 67031
ELEMENT_SET_NO = 999
REV_AT_EPOCH   = 172
BSTAR          = -.38658071E-2
MEAN_MOTION_DOT = -.880537E-2
MEAN_MOTION_DDOT = 0

CCSDS_OMM_VERS = 2.0
CREATION_DATE  = 
ORIGINATOR     = 

OBJECT_NAME    = STARLINK-36131
OBJECT_ID      = 2025-294C
CENTER_NAME    = EARTH
REF_FRAME      = TEME
TIME_SYSTEM    = UTC
MEAN_ELEMENT_THEORY = SGP/SGP4

EPOCH          = 2025-12-21T14:00:01.999872
MEAN_MOTION    = 15.85807485
ECCENTRICITY   = .00024486
INCLINATION    = 42.9995
RA_OF_ASC_NODE = 128.0578
ARG_OF_PERICENTER = 280.7670
MEAN_ANOMALY   = 15.2992

EPHEMERIS_TYPE = 0
CLASSIFICATION_TYPE = U
NORAD_CAT_ID   = 67032
ELEMENT_SET_NO = 999
REV_AT_EPOCH   = 153
BSTAR          = -.44508273E-2
MEAN_MOTION_DOT = -.1003377E-1
MEAN_MOTION_DDOT = 0

CCSDS_OMM_VERS = 2.0
CREATION_DATE  = 
ORIGINATOR     = 

OBJECT_NAME    = STARLINK-36137
OBJECT_ID      = 2025-294D
CENTER_NAME    = EARTH
REF_FRAME      = TEME
TIME_SYSTEM    = UTC
MEAN_ELEMENT_THEORY = SGP/SGP4

EPOCH          = 2025-12-21T14:00:01.999872
MEAN_MOTION    = 15.85780214
ECCENTRICITY   = .00018167
INCLINATION    = 42.9994
RA_OF_ASC_NODE = 128.0635
ARG_OF_PERICENTER = 277.9280
MEAN_ANOMALY   = 16.0084

EPHEMERIS_TYPE = 0
CLASSIFICATION_TYPE = U
NORAD_CAT_ID   = 67033
ELEMENT_SET_NO = 999
REV_AT_EPOCH   = 153
BSTAR          = -.42927187E-2
MEAN_MOTION_DOT = -.969922E-2
MEAN_MOTION_DDOT = 0

CCSDS_OMM_VERS = 2.0
CREATION_DATE  = 
ORIGINATOR     = 

OBJECT_NAME    = STARLINK-36140
OBJECT_ID      = 2025-294E
CENTER_NAME    = EARTH
REF_FRAME      = TEME
TIME_SYSTEM    = UTC
MEAN_ELEMENT_THEORY = SGP/SGP4

EPOCH          = 2025-12-21T14:00:01.999872
MEAN_MOTION    = 15.85841455
ECCENTRICITY   = .00026588
INCLINATION    = 42.9994
RA_OF_ASC_NODE = 128.0523
ARG_OF_PERICENTER = 280.9016
MEAN_ANOMALY   = 17.4647

EPHEMERIS_TYPE = 0
CLASSIFICATION_TYPE = U
NORAD_CAT_ID   = 67034
ELEMENT_SET_NO = 999
REV_AT_EPOCH   = 153
BSTAR          = -.47204163E-2
MEAN_MOTION_DOT = -.1059008E-1
MEAN_MOTION_DDOT = 0

CCSDS_OMM_VERS = 2.0
CREATION_DATE  = 
ORIGINATOR     = 

OBJECT_NAME    = STARLINK-36085
OBJECT_ID      = 2025-294F
CENTER_NAME    = EARTH
REF_FRAME      = TEME
TIME_SYSTEM    = UTC
MEAN_ELEMENT_THEORY = SGP/SGP4

EPOCH          = 2025-12-21T14:00:01.999872
MEAN_MOTION    = 15.85830746
ECCENTRICITY   = .00017592
INCLINATION    = 42.9996
RA_OF_ASC_NODE = 128.0402
ARG_OF_PERICENTER = 275.8969
MEAN_ANOMALY   = 27.1999

EPHEMERIS_TYPE = 0
CLASSIFICATION_TYPE = U
NORAD_CAT_ID   = 67035
ELEMENT_SET_NO = 999
REV_AT_EPOCH   = 153
BSTAR          = -.49437533E-2
MEAN_MOTION_DOT = -.1102112E-1
MEAN_MOTION_DDOT = 0

CCSDS_OMM_VERS = 2.0
CREATION_DATE  = 
ORIGINATOR     = 

OBJECT_NAME    = STARLINK-36125
OBJECT_ID      = 2025-294G
CENTER_NAME    = EARTH
REF_FRAME      = TEME
TIME_SYSTEM    = UTC
MEAN_ELEMENT_THEORY = SGP/SGP4

EPOCH          = 2025-12-21T14:00:01.999872
MEAN_MOTION    = 15.85856063
ECCENTRICITY   = .00018775
INCLINATION    = 42.9994
RA_OF_ASC_NODE = 128.0464
ARG_OF_PERICENTER = 276.7233
MEAN_ANOMALY   = 23.9643

EPHEMERIS_TYPE = 0
CLASSIFICATION_TYPE = U
NORAD_CAT_ID   = 67036
ELEMENT_SET_NO = 999
REV_AT_EPOCH   = 172
BSTAR          = -.4792777E-2
MEAN_MOTION_DOT = -.1073591E-1
MEAN_MOTION_DDOT = 0

